NORAD_CAT_ID,OBJECT_NAME,OBJECT_TYPE,EPOCH,MEAN_MOTION,ECCENTRICITY,INCLINATION,RA_OF_ASC_NODE,ARG_OF_PERICENTER,MEAN_ANOMALY,BSTAR,MEAN_MOTION_DOT,MEAN_MOTION_DDOT,TLE_LINE0,TLE_LINE1,TLE_LINE2,SEMIMAJOR_AXIS,PERIOD,APOGEE,PERIGEE,DECAYED
53749.0,STARLINK-4680,PAYLOAD,2022-12-13 12:34:33,15.08843204,0.0001624,53.2183,171.2227,58.5403,301.5748,7.2846e-05,8.72e-06,0.0,0 STARLINK-4680,1 53749U 22107BB  22347.52399784  .00000872  00000-0  72846-4 0  9993,2 53749  53.2183 171.2227 0001624  58.5403 301.5748 15.08843204 16125,6917.871,95.437,540.859,538.612,0.0
53749.0,STARLINK-4680,PAYLOAD,2022-12-13 18:56:06,15.08841343,0.0002109,53.2196,170.0336,53.5492,306.5695,3.2724e-05,2.33e-06,0.0,0 STARLINK-4680,1 53749U 22107BB  22347.78896115  .00000233  00000-0  32724-4 0  9993,2 53749  53.2196 170.0336 0002109  53.5492 306.5695 15.08841343 15384,6917.876,95.437,541.2,538.2819999999998,0.0
53749.0,STARLINK-4680,PAYLOAD,2022-12-14 12:25:20,15.08872073,0.0002001,53.218,166.762,44.708,315.4073,-0.00037971,-6.332e-05,0.0,0 STARLINK-4680,1 53749U 22107BB  22348.51760407 -.00006332  00000-0 -37971-3 0  9995,2 53749  53.2180 166.7620 0002001  44.7080 315.4073 15.08872073 16273,6917.781999999997,95.436,541.0319999999998,538.263,0.0
53749.0,STARLINK-4680,PAYLOAD,2022-12-14 17:11:30,15.08790741,0.0001453,53.2172,165.8708,65.3664,294.7479,0.00068677,0.00010644,0.0,0 STARLINK-4680,1 53749U 22107BB  22348.71632035  .00010644  00000-0  68677-3 0  9998,2 53749  53.2172 165.8708 0001453  65.3664 294.7479 15.08790741 16302,6918.031,95.441,540.901,538.891,0.0
53749.0,STARLINK-4680,PAYLOAD,2022-12-14 18:46:52,15.08860086,0.0001941,53.2179,165.5733,50.4771,309.6393,-0.00017886,-3.135e-05,0.0,0 STARLINK-4680,1 53749U 22107BB  22348.78255780 -.00003135  00000-0 -17886-3 0  9998,2 53749  53.2179 165.5733 0001941  50.4771 309.6393 15.08860086 15535,6917.819,95.436,541.0269999999998,538.341,0.0
53749.0,STARLINK-4680,PAYLOAD,2022-12-15 12:16:07,15.08840566,0.0001923,53.2172,162.3023,46.3004,313.8147,0.00010969,1.458e-05,0.0,0 STARLINK-4680,1 53749U 22107BB  22349.51119734  .00001458  00000-0  10969-3 0  9997,2 53749  53.2172 162.3023 0001923  46.3004 313.8147 15.08840566 15645,6917.879,95.438,541.0740000000002,538.413,0.0
53749.0,STARLINK-4680,PAYLOAD,2022-12-15 20:13:03,15.08829361,0.0001859,53.2175,160.8151,46.8566,313.2581,8.549299999999999e-05,1.072e-05,0.0,0 STARLINK-4680,1 53749U 22107BB  22349.84240582  .00001072  00000-0  85493-4 0  9996,2 53749  53.2175 160.8151 0001859  46.8566 313.2581 15.08829361 16477,6917.913000000001,95.438,541.064,538.492,0.0
53749.0,STARLINK-4680,PAYLOAD,2022-12-15 21:48:26,15.08831974,0.0001909,53.2177,160.5179,46.3464,313.7686,2.6509e-05,1.34e-06,0.0,0 STARLINK-4680,1 53749U 22107BB  22349.90864575  .00000134  00000-0  26509-4 0  9998,2 53749  53.2177 160.5179 0001909  46.3464 313.7686 15.08831974 15703,6917.905,95.438,541.091,538.4490000000002,0.0
53749.0,STARLINK-4680,PAYLOAD,2022-12-16 12:06:55,15.08839011,0.0001869,53.2179,157.8415,45.6409,314.4736,3.9449e-06,-2.25e-06,0.0,0 STARLINK-4680,1 53749U 22107BB  22350.50480384 -.00000225  00000-0  39449-5 0  9998,2 53749  53.2179 157.8415 0001869  45.6409 314.4736 15.08839011 16573,6917.8830000000025,95.438,541.0409999999998,538.455,0.0
53749.0,STARLINK-4680,PAYLOAD,2022-12-16 20:03:50,15.08842485,0.0001893,53.2179,156.3549,46.7638,313.3512,3.298e-05,2.37e-06,0.0,0 STARLINK-4680,1 53749U 22107BB  22350.83600041  .00000237  00000-0  32980-4 0  9992,2 53749  53.2179 156.3549 0001893  46.7638 313.3512 15.08842485 15846,6917.873000000001,95.437,541.047,538.428,0.0
53749.0,STARLINK-4680,PAYLOAD,2022-12-17 10:22:19,15.088312900000002,0.0001918,53.2178,153.6789,47.2687,312.8466,6.226699999999999e-05,7.03e-06,0.0,0 STARLINK-4680,1 53749U 22107BB  22351.43216676  .00000703  00000-0  62267-4 0  9995,2 53749  53.2178 153.6789 0001918  47.2687 312.8466 15.08831290 16710,6917.906999999997,95.438,541.099,538.445,0.0
53749.0,STARLINK-4680,PAYLOAD,2022-12-17 18:19:15,15.08829345,0.0001939,53.2183,152.192,46.6036,313.5117,3.572e-05,2.8e-06,0.0,0 STARLINK-4680,1 53749U 22107BB  22351.76337116  .00000280  00000-0  35720-4 0  9998,2 53749  53.2183 152.1920 0001939  46.6036 313.5117 15.08829345 16765,6917.913000000001,95.438,541.119,538.437,0.0
53749.0,STARLINK-4680,PAYLOAD,2022-12-18 11:48:29,15.08839682,0.0001958,53.2183,148.9211,47.5376,312.5782,7.3575e-05,8.83e-06,0.0,0 STARLINK-4680,1 53749U 22107BB  22352.49200640  .00000883  00000-0  73575-4 0  9999,2 53749  53.2183 148.9211 0001958  47.5376 312.5782 15.08839682 16097,6917.880999999999,95.438,541.101,538.3919999999998,0.0
53749.0,STARLINK-4680,PAYLOAD,2022-12-18 19:45:24,15.0884405,0.0001976,53.2183,147.4342,46.9301,313.1857,7.1668e-05,8.53e-06,0.0,0 STARLINK-4680,1 53749U 22107BB  22352.82320363  .00000853  00000-0  71668-4 0  9999,2 53749  53.2183 147.4342 0001976  46.9301 313.1857 15.08844050 16924,6917.868,95.437,541.1,538.366,0.0
53749.0,STARLINK-4680,PAYLOAD,2022-12-19 16:25:25,15.08841138,0.0001923,53.2186,143.5685,47.8533,312.2622,0.00011021,1.466e-05,0.0,0 STARLINK-4680,1 53749U 22107BB  22353.68432301  .00001466  00000-0  11021-3 0  9997,2 53749  53.2186 143.5685 0001923  47.8533 312.2622 15.08841138 17052,6917.877,95.437,541.072,538.4119999999998,0.0
53749.0,STARLINK-4680,PAYLOAD,2022-12-19 22:46:57,15.08842685,0.0001909,53.2186,142.3792,47.3777,312.7376,9.8812e-05,1.285e-05,0.0,0 STARLINK-4680,1 53749U 22107BB  22353.94928180  .00001285  00000-0  98812-4 0  9994,2 53749  53.2186 142.3792 0001909  47.3777 312.7376 15.08842685 16314,6917.871999999999,95.437,541.058,538.4169999999998,0.0
53749.0,STARLINK-4680,PAYLOAD,2022-12-20 03:33:07,15.08847639,0.0001917,53.2187,141.4872,47.6823,312.4332,0.00012517,1.705e-05,0.0,0 STARLINK-4680,1 53749U 22107BB  22354.14799780  .00001705  00000-0  12517-3 0  9993,2 53749  53.2187 141.4872 0001917  47.6823 312.4332 15.08847639 17121,6917.857,95.437,541.048,538.396,0.0
53749.0,STARLINK-4680,PAYLOAD,2022-12-20 21:02:21,15.08845761,0.0001896,53.2186,138.2164,46.4254,313.6896,2.0384e-05,3.6e-07,0.0,0 STARLINK-4680,1 53749U 22107BB  22354.87663718  .00000036  00000-0  20384-4 0  9992,2 53749  53.2186 138.2164 0001896  46.4254 313.6896 15.08845761 17233,6917.863,95.437,541.039,538.4159999999998,0.0
53749.0,STARLINK-4680,PAYLOAD,2022-12-21 16:06:59,15.08845287,0.0002009,53.2189,134.6483,45.5477,314.5679,-0.00012952,-2.349e-05,0.0,0 STARLINK-4680,1 53749U 22107BB  22355.67151917 -.00002349  00000-0 -12952-3 0  9996,2 53749  53.2189 134.6483 0002009  45.5477 314.5679 15.08845287 16572,6917.864000000001,95.437,541.119,538.339,0.0
53749.0,STARLINK-4680,PAYLOAD,2022-12-21 20:53:09,15.08827763,0.000191,53.2186,133.7562,39.9507,320.1625,-4.2767e-05,-9.68e-06,0.0,0 STARLINK-4680,1 53749U 22107BB  22355.87024927 -.00000968  00000-0 -42767-4 0  9991,2 53749  53.2186 133.7562 0001910  39.9507 320.1625 15.08827763 16605,6917.918000000002,95.438,541.104,538.461,0.0
53749.0,STARLINK-4680,PAYLOAD,2022-12-22 15:57:46,15.08840216,0.0001988,53.218,130.1889,39.8282,320.2856,-1.4353999999999996e-06,-3.11e-06,0.0,0 STARLINK-4680,1 53749U 22107BB  22356.66512089 -.00000311  00000-0 -14354-5 0  9994,2 53749  53.2180 130.1889 0001988  39.8282 320.2856 15.08840216 17501,6917.88,95.438,541.12,538.369,0.0
53749.0,STARLINK-4680,PAYLOAD,2022-12-22 20:43:55,15.08843401,0.0002026,53.2185,129.2965,41.7108,318.4038,5.117600000000001e-05,5.26e-06,0.0,0 STARLINK-4680,1 53749U 22107BB  22356.86383775  .00000526  00000-0  51176-4 0  9992,2 53749  53.2185 129.2965 0002026  41.7108 318.4038 15.08843401 16759,6917.87,95.437,541.137,538.3330000000002,0.0
53749.0,STARLINK-4680,PAYLOAD,2022-12-23 09:27:01,15.08835621,0.000207,53.2189,126.9172,42.154,317.9611,4.9925e-05,5.06e-06,0.0,0 STARLINK-4680,1 53749U 22107BB  22357.39376359  .00000506  00000-0  49925-4 0  9998,2 53749  53.2189 126.9172 0002070  42.1540 317.9611 15.08835621 16836,6917.894,95.438,541.191,538.327,0.0
53749.0,STARLINK-4680,PAYLOAD,2022-12-23 15:48:34,15.08777021,0.0002333,53.2184,125.7281,48.9109,311.2084,0.00081353,0.00012661,0.0,0 STARLINK-4680,1 53749U 22107BB  22357.65873513  .00012661  00000-0  81353-3 0  9996,2 53749  53.2184 125.7281 0002333  48.9109 311.2084 15.08777021 17657,6918.073,95.442,541.552,538.3240000000002,0.0
53749.0,STARLINK-4680,PAYLOAD,2022-12-24 01:20:53,15.0882799,0.0002127,53.2189,123.9442,40.1765,319.9384,7.7171e-05,9.4e-06,0.0,0 STARLINK-4680,1 53749U 22107BB  22358.05617118  .00000940  00000-0  77171-4 0  9999,2 53749  53.2189 123.9442 0002127  40.1765 319.9384 15.08827990 16933,6917.917,95.438,541.254,538.311,0.0
53749.0,STARLINK-4680,PAYLOAD,2022-12-24 10:53:11,15.08842304,0.0002131,53.2187,122.1597,39.9997,320.1152,3.9316e-05,3.38e-06,0.0,0 STARLINK-4680,1 53749U 22107BB  22358.45360502  .00000338  00000-0  39316-4 0  9995,2 53749  53.2187 122.1597 0002131  39.9997 320.1152 15.08842304 16990,6917.873000000001,95.437,541.2130000000002,538.264,0.0
53749.0,STARLINK-4680,PAYLOAD,2022-12-24 18:50:07,15.0883378,0.0002207,53.2193,120.6726,40.4765,319.6391,-2.9748e-05,-7.62e-06,0.0,0 STARLINK-4680,1 53749U 22107BB  22358.78481303 -.00000762  00000-0 -29748-4 0  9995,2 53749  53.2193 120.6726 0002207  40.4765 319.6391 15.08833780 17041,6917.899,95.438,541.2909999999998,538.238,0.0
53749.0,STARLINK-4680,PAYLOAD,2022-12-25 01:11:40,15.08838372,0.0002189,53.2191,119.4835,40.7124,319.4032,-3.387200000000001e-06,-3.42e-06,0.0,0 STARLINK-4680,1 53749U 22107BB  22359.04976996 -.00000342  00000-0 -33872-5 0  9990,2 53749  53.2191 119.4835 0002189  40.7124 319.4032 15.08838372 17869,6917.885,95.438,541.265,538.236,0.0
53749.0,STARLINK-4680,PAYLOAD,2022-12-25 15:30:08,15.08833893,0.0002147,53.2194,116.8075,38.3084,321.806,-3.9592e-06,-3.51e-06,0.0,0 STARLINK-4680,1 53749U 22107BB  22359.64593405 -.00000351  00000-0 -39592-5 0  9991,2 53749  53.2194 116.8075 0002147  38.3084 321.8060 15.08833893 17952,6917.899,95.438,541.249,538.279,0.0
